STARLINK-4630           
1 53680U 22105AJ  24333.49495036  .00000976  00000+0  80550-4 0  9990
2 53680  97.6571 211.9770 0001735  83.8744 276.2678 15.01264297123298
STARLINK-4424           
1 53681U 22105AK  24333.62639919  .00001822  00000+0  14635-3 0  9997
2 53681  97.6590 212.1216 0001638  96.3399 263.8012 15.01266704123317
STARLINK-4438           
1 53682U 22105AL  24333.41718766  .00003456  00000+0  27351-3 0  9997
2 53682  97.6592 211.9310 0002295  76.4370 283.7109 15.01267981123282
STARLINK-4625           
1 53683U 22105AM  24333.63219921  .00001637  00000+0  13198-3 0  9994
2 53683  97.6558 212.1052 0001549  86.9168 273.2233 15.01267130123315
STARLINK-4624           
1 53684U 22105AN  24333.11541167  .00004851  00000+0  38211-3 0  9992
2 53684  97.6529 211.6645 0001588  87.6192 272.5214 15.01253334123237
STARLINK-4626           
1 53685U 22105AP  24333.42482541  .00002931  00000+0  23258-3 0  9999
2 53685  97.6576 211.9120 0002102 106.8959 253.2495 15.01277456123282
STARLINK-4467           
1 53686U 22105AQ  24332.19709219 -.00000753  00000+0 -53979-4 0  9993
2 53686  97.6552 210.7563 0004820  68.3390 291.8347 15.01252882123106
STARLINK-4569           
1 53687U 22105AR  24333.62455579  .00002772  00000+0  22033-3 0  9997
2 53687  97.6613 212.1096 0001932  99.5149 260.6294 15.01256188123312
STARLINK-4571           
1 53688U 22105AS  24333.41903276  .00003697  00000+0  29217-3 0  9995
2 53688  97.6569 211.9158 0000984 107.3214 252.8118 15.01269634123280
STARLINK-4562           
1 53689U 22105AT  24333.40632808  .00002512  00000+0  20005-3 0  9996
2 53689  97.6557 211.9359 0005378  68.8973 291.2826 15.01267311123289
STARLINK-4570           
1 53690U 22105AU  24333.64121782  .00001558  00000+0  12582-3 0  9998
2 53690  97.6548 212.0615 0000976  68.7452 291.3876 15.01264818123317
STARLINK-4560           
1 53691U 22105AV  24332.42111568  .00000021  00000+0  62164-5 0  9992
2 53691  97.6574 210.9199 0002907  88.3971 271.7586 15.01260641123131
STARLINK-4572           
1 53692U 22105AW  24333.74859898  .00002775  00000+0  22056-3 0  9996
2 53692  97.6557 212.2408 0002098  83.8853 276.2610 15.01257246123338
STARLINK-4566           
1 53693U 22105AX  24332.41371038 -.00000849  00000+0 -61526-4 0  9993
2 53693  97.6549 210.9234 0003288  92.9448 267.2153 15.01255368123138
STARLINK-4725           
1 53700U 22107A   24333.58831687  .00000972  00000+0  79137-4 0  9996
2 53700  53.2166 176.1537 0001422  86.7827 273.3328 15.08841863123746
STARLINK-4711           
1 53701U 22107B   24333.58460822  .00003526  00000+0  23938-3 0  9991
2 53701  53.2178 176.1251 0001263 119.6680 240.4438 15.08862021123745
STARLINK-4724           
1 53702U 22107C   24333.80868914  .00001883  00000+0  13637-3 0  9990
2 53702  53.2136 160.4386 0001500  78.9192 281.1969 15.08843546124769
STARLINK-4731           
1 53703U 22107D   24333.59938843  .00004080  00000+0  27411-3 0  9993
2 53703  53.2153 176.2294 0002019  85.5533 274.5689 15.08867794123744
STARLINK-4714           
1 53704U 22107E   24333.31606772  .00001776  00000+0  12964-3 0  9993
2 53704  53.2162 178.0037 0001360 102.3836 257.7308 15.08847225124280
STARLINK-4717           
1 53705U 22107F   24333.57734668  .00004634  00000+0  30911-3 0  9996
2 53705  53.2148 176.7959 0001447  79.2729 280.8426 15.08831183124488
STARLINK-4716           
1 53706U 22107G   24333.89383106  .00000559  00000+0  53232-4 0  9993
2 53706  53.2166 175.2049 0002459  81.4242 278.7029 15.08833243124532
STARLINK-4667           
1 53707U 22107H   24333.88597692 -.00003650  00000+0 -21146-3 0  9995
2 53707  53.2153 160.2028 0001284  96.4150 263.6988 15.08827221124748
STARLINK-4694           
1 53708U 22107J   24333.87124334  .00001436  00000+0  10826-3 0  9995
2 53708  53.2148 160.1247 0001500  81.4717 278.6445 15.08843948124747
STARLINK-4685           
1 53709U 22107K   24333.32842560  .00000762  00000+0  65985-4 0  9992
2 53709  53.2166 182.3879 0001568  94.0884 266.0287 15.08842199124072
STARLINK-4627           
1 53711U 22107M   24333.00828023  .00000088  00000+0  23610-4 0  9998
2 53711  53.2150 183.9400 0001521  68.1987 291.9167 15.08853373124025
STARLINK-4683           
1 53712U 22107N   24333.31368578  .00001451  00000+0  10922-3 0  9993
2 53712  53.2165 182.3048 0001395  88.3264 271.7888 15.08845242124093
STARLINK-4698           
1 53713U 22107P   24332.94349912  .00061839  00000+0  24981-2 0  9998
2 53713  53.2097 182.9335 0006482 135.8940 224.2576 15.24184944124038
STARLINK-4688           
1 53714U 22107Q   24333.91667824  .01251391  00000+0  18379-1 0  9990
2 53714  53.2110 156.8326 0001192  59.8890 322.4808 15.52233524  5809
STARLINK-4686           
1 53715U 22107R   24333.33350457  .00000331  00000+0  38896-4 0  9992
2 53715  53.2142 187.3899 0001808  95.1899 264.9299 15.08840586124017
STARLINK-4699           
1 53716U 22107S   24333.32980006  .00001324  00000+0  10123-3 0  9996
2 53716  53.2159 187.3643 0001331  87.7953 272.3191 15.08848282124006
STARLINK-4695           
1 53718U 22107U   24333.58475262  .00002377  00000+0  16735-3 0  9993
2 53718  53.2151 186.8097 0001404  83.6899 276.4253 15.08842407124032
STARLINK-4644           
1 53719U 22107V   24333.85144114 -.00000960  00000+0 -42255-4 0  9998
2 53719  53.2148 154.9727 0001328  89.5462 270.5683 15.08841920124515
STARLINK-4642           
1 53720U 22107W   24333.33717475  .00000208  00000+0  31134-4 0  9996
2 53720  53.2166 187.4105 0001426 104.6794 255.4356 15.08839075124016
STARLINK-4707           
1 53721U 22107X   24332.94713278  .00007696  00000+0  50109-3 0  9990
2 53721  53.2155 189.2429 0000748  81.4674 278.6403 15.08839799123954
STARLINK-4700           
1 53722U 22107Y   24332.95446052 -.00003439  00000+0 -19810-3 0  9992
2 53722  53.2143 189.2856 0001591  78.4248 281.6922 15.08833780123949
STARLINK-4705           
1 53723U 22107Z   24333.59108336  .00001590  00000+0  11796-3 0  9993
2 53723  53.2159 186.1595 0001812  89.8550 270.2650 15.08840909124192
STARLINK-4663           
1 53724U 22107AA  24333.34085624 -.00001580  00000+0 -81185-4 0  9992
2 53724  53.2171 187.4348 0001452  93.1869 266.9289 15.08854663123559
STARLINK-4697           
1 53726U 22107AC  24333.81190558  .00001609  00000+0  11915-3 0  9992
2 53726  53.2160 185.3976 0001388 109.5417 250.5725 15.08844663124084
STARLINK-4701           
1 53727U 22107AD  24333.82296316  .00001977  00000+0  14227-3 0  9990
2 53727  53.2160 185.4683 0001421  91.6035 268.5120 15.08841114124228
STARLINK-4640           
1 53728U 22107AE  24333.62055408 -.00000621  00000+0 -20895-4 0  9990
2 53728  53.2158 186.3344 0001826 115.0136 245.1046 15.08888741124193
STARLINK-4651           
1 53729U 22107AF  24332.97290738  .00010187  00000+0  65809-3 0  9994
2 53729  53.2168 189.4031 0001641  96.7162 263.4017 15.08790981124123
STARLINK-4641           
1 53730U 22107AG  24333.62793278  .00000249  00000+0  33738-4 0  9991
2 53730  53.2164 186.3854 0001560  89.0574 271.0597 15.08836286124196
STARLINK-4636           
1 53731U 22107AH  24333.63898455  .00001593  00000+0  11818-3 0  9993
2 53731  53.2153 186.4570 0001454  93.8130 266.3029 15.08837941124224
STARLINK-4661           
1 53732U 22107AJ  24333.56633419  .00001386  00000+0  10515-3 0  9996
2 53732  53.2158 186.7102 0001358  97.5094 262.6052 15.08838034123584
STARLINK-4574           
1 53733U 22107AK  24332.91771079  .00000622  00000+0  57174-4 0  9995
2 53733  53.2155 189.7677 0001605  75.1889 284.9281 15.08841218124110
STARLINK-4616           
1 53734U 22107AL  24333.30040856  .00001742  00000+0  12751-3 0  9997
2 53734  53.2153 187.8970 0001212  95.4336 264.6794 15.08844380123543
STARLINK-4618           
1 53735U 22107AM  24332.94619961  .00005958  00000+0  39250-3 0  9992
2 53735  53.2166 199.2219 0001647  86.7180 273.4001 15.08803584123981
STARLINK-4652           
1 53736U 22107AN  24333.57643679  .00000969  00000+0  79006-4 0  9997
2 53736  53.2167 186.7722 0001165 107.3158 252.7962 15.08828047123586
STARLINK-4646           
1 53737U 22107AP  24333.34730734  .00001529  00000+0  11413-3 0  9992
2 53737  53.2168 197.4603 0001387  83.6682 276.4468 15.08841468123417
STARLINK-4662           
1 53738U 22107AQ  24333.33993607  .00000570  00000+0  53908-4 0  9993
2 53738  53.2158 197.4162 0001343  93.2161 266.8985 15.08842685124047
STARLINK-4607           
1 53740U 22107AS  24333.01979303  .00001057  00000+0  84522-4 0  9995
2 53740  53.2173 198.9723 0001381  94.2479 265.8671 15.08839120124143
STARLINK-4614           
1 53741U 22107AT  24333.32938032  .00001415  00000+0  10694-3 0  9990
2 53741  53.2174 182.4612 0000893 110.6652 249.4436 15.08848891124404
STARLINK-4637           
1 53742U 22107AU  24333.35467168  .00001581  00000+0  11740-3 0  9998
2 53742  53.2180 197.5063 0001574  87.3173 272.7999 15.08848388124194
STARLINK-4645           
1 53743U 22107AV  24333.36941498  .00002098  00000+0  14983-3 0  9999
2 53743  53.2167 197.6025 0001602  80.4554 279.6619 15.08847046124193
STARLINK-4670           
1 53744U 22107AW  24333.59016404  .00001025  00000+0  82500-4 0  9995
2 53744  53.2168 196.1484 0001245 100.8359 259.2773 15.08833494124233
STARLINK-4656           
1 53745U 22107AX  24333.63805948  .00001880  00000+0  13617-3 0  9991
2 53745  53.2166 196.4356 0001494  79.6712 280.4448 15.08841081124231
STARLINK-4589           
1 53746U 22107AY  24333.63069244  .00002645  00000+0  18421-3 0  9991
2 53746  53.2170 196.3923 0001672  73.4723 286.6453 15.08843980124232
STARLINK-4669           
1 53748U 22107BA  24333.91667824  .01032193  00000+0  40138-1 0  9992
2 53748  53.2162 194.4790 0001410  70.9942  14.6940 15.22654122123504
STARLINK-4680           
1 53749U 22107BB  24333.91667824  .00104180  00000+0  27998-2 0  9998
2 53749  53.2164 176.6543 0004726 160.9591 118.5674 15.37089997  5929
